{
  "norad_id": 28895,
  "name": "CUBESAT XI-V",
  "history": [
    {
      "epoch": "2026-03-28T16:14:01.785984Z",
      "apogee_km": 664.2328672566191,
      "perigee_km": 642.6290778177954,
      "latitude_deg": 5.8477112752416944e-05,
      "longitude_deg": 172.06341440486577,
      "height_km": 658.4860082513027,
      "semi_major_axis_km": 7031.5679725372065,
      "eccentricity": 0.0015362,
      "inclination_deg": 98.2868,
      "raan_deg": 241.6643,
      "arg_perigee_deg": 101.1756,
      "mean_anomaly_deg": 259.1179,
      "mean_motion_rev_day": 14.72395539
    }
  ]
}